QIANFAN-25              
1 61558U 24185G   25345.93985372  .00000653  00000+0  39069-3 0  9993
2 61558  88.9809  78.2803 0007989 325.1107  34.9551 14.05907895 69391
QIANFAN-26              
1 61559U 24185H   25345.94973322  .00000402  00000+0  38924-3 0  9998
2 61559  88.9813  79.8361 0005979  33.6825 326.4720 13.77812685 68563
QIANFAN-27              
1 61560U 24185J   25345.97737900  .00000944  00000+0  38003-3 0  9992
2 61560  88.9806  77.0330 0005699 297.5133  62.5482 14.27332227 70050
QIANFAN-28              
1 61561U 24185K   25345.95993871  .00001476  00000+0  58926-3 0  9999
2 61561  88.9825  77.0382 0005069 296.4357  63.6318 14.28033159 70060
QIANFAN-29              
1 61562U 24185L   25345.99842353  .00000260  00000+0  38363-3 0  9995
2 61562  88.9790  81.3872 0011231  61.0530 299.1746 13.51010874 67691
QIANFAN-30              
1 61563U 24185M   25345.97269729  .00000163  00000+0  23741-3 0  9990
2 61563  88.9810  80.9149 0008503  50.8957 309.2948 13.49988229 67966
QIANFAN-31              
1 61564U 24185N   25345.94562695  .00000270  00000+0  35671-3 0  9990
2 61564  88.9793  80.7211 0007727  46.5736 313.6061 13.57966982 68056
QIANFAN-32              
1 61565U 24185P   25346.01565520  .00000210  00000+0  30695-3 0  9995
2 61565  88.9853  81.0444 0010922  71.7170 288.5168 13.50735312 67948
